IRIDIUM 57              
1 25273U 98019B   24176.88506217  .00000449  00000+0  14994-3 0  9999
2 25273  86.3957 294.8962 0002142  94.0825 266.0616 14.35257038373734
IRIDIUM 63              
1 25286U 98021B   24176.55730511  .00000407  00000+0  13407-3 0  9998
2 25286  86.3993 231.9316 0002262  88.9190 271.2266 14.35807867372518
IRIDIUM 69              
1 25319U 98026A   24176.60415151  .00000543  00000+0  16608-3 0  9993
2 25319  86.3980 246.2760 0004472 108.6731 251.4953 14.40048857371580
IRIDIUM 71              
1 25320U 98026B   24176.60256767  .00000463  00000+0  13991-3 0  9994
2 25320  86.3982 241.0361 0003066 138.4067 221.7366 14.40360260372107
IRIDIUM 73              
1 25344U 98032C   24176.54435007  .00000607  00000+0  14971-3 0  9995
2 25344  86.4440 198.4980 0002886  97.5956 262.5577 14.50589299378992
IRIDIUM 82              
1 25467U 98051A   24176.36384850  .00018176  00000+0  90537-3 0  9993
2 25467  86.3785 282.3675 0127755 192.9843 166.8099 15.10474935369577
IRIDIUM 2               
1 25527U 98066A   24176.81523559  .00981963  54210-3  12148-2 0  9997
2 25527  85.4893 297.8134 0010926 263.3806  96.6239 16.07867695408664
